ION SCV-013             
1 58300U 23174AW  26169.62608626  .00002271  00000+0  14767-3 0  9992
2 58300  97.6158 224.6873 0098434 190.4251 169.4937 15.05103371141759
LEO EXPRESS 1           
1 58301U 23174AX  26169.60972300  .00012192  00000+0  32642-3 0  9999
2 58301  97.5190 255.1197 0074110 116.7744 244.1106 15.35360054145115
ICEYE-X35               
1 58302U 23174AY  26169.59445642  .00039909  00000+0  64867-3 0  9991
2 58302  97.3794 254.2052 0009546 188.1961 171.9137 15.52547503145564
FLOCK 4Q-29             
1 58304U 23174BA  26169.24684131  .00055511  00000+0  78902-3 0  9995
2 58304  97.3938 261.0260 0005985 139.1249 221.0456 15.56199873145929
FLOCK 4Q-35             
1 58309U 23174BF  26169.25009743  .00037491  00000+0  51162-3 0  9997
2 58309  97.3879 261.3875 0006083 147.0222 213.1414 15.57384854145979
FLOCK 4Q-7              
1 58318U 23174BQ  26169.23410430  .00027013  00000+0  39414-3 0  9999
2 58318  97.3915 260.7569 0006633 135.4496 224.7293 15.55631350145919
FLOCK 4Q-2              
1 58320U 23174BS  26169.55351612  .00018294  00000+0  33157-3 0  9992
2 58320  97.3829 258.0251 0006953 130.3104 229.8755 15.49652721145815
PROTOMETHEE             
1 58321U 23174BT  26169.58280792  .00002780  00000+0  94579-4 0  9995
2 58321  97.3790 247.9835 0010186 162.2640 197.8959 15.31241073145185
FLOCK 4Q-9              
1 58322U 23174BU  26169.51290435  .00023028  00000+0  41178-3 0  9998
2 58322  97.3863 258.0665 0007709 134.5741 225.6141 15.49983864145792
OBSERVER-1A             
1 58323U 23174BV  26169.59227992  .00007826  00000+0  20682-3 0  9990
2 58323  97.3942 253.3773 0009135 144.6154 215.5699 15.38667862145425
PICO-01A003             
1 58326U 23174BY  26169.49281183  .00016553  00000+0  33903-3 0  9991
2 58326  97.3795 254.8621 0006584 149.5936 210.5696 15.46141735145617
FLOCK 4Q-4              
1 58327U 23174BZ  26169.50338706  .00017775  00000+0  33390-3 0  9995
2 58327  97.3827 257.2434 0007028 151.3956 208.7682 15.48631509145765
FLOCK 4Q-13             
1 58328U 23174CA  26169.21778320  .00018531  00000+0  31214-3 0  9998
2 58328  97.4001 260.0630 0007347 137.3947 222.7877 15.51722867145831
OUTPOST MISSION 2       
1 58334U 23174CG  26169.51669602  .00028903  00000+0  38922-3 0  9997
2 58334  97.3966 262.5234 0005859 118.9151 241.2693 15.57794059146035
LEMUR-2-JK0903EM1407    
1 58336U 23174CJ  26169.49798949  .00021247  00000+0  35748-3 0  9990
2 58336  97.3921 260.0046 0005722 116.7088 243.4751 15.51737446145934
LEMUR-2-MJR092620       
1 58340U 23174CN  26169.51896854  .00015336  00000+0  32763-3 0  9998
2 58340  97.3974 259.5722 0007116 113.7449 246.4547 15.44915529145857
O3B MPOWER F5           
1 58346U 23175A   26168.70834635 -.00000022  00000+0  00000+0 0  9996
2 58346   0.0491  11.4610 0005155  93.1696 255.4246  5.00115966 49469
O3B MPOWER F6           
1 58347U 23175B   26169.40848562 -.00000023  00000+0  00000+0 0  9990
2 58347   0.0526   3.3969 0004505  79.7086 276.9435  5.00115886 48410
HAIYANG-3A              
1 58349U 23176A   26168.93474308  .00000087  00000+0  46558-4 0  9995
2 58349  98.5472 246.8971 0010087  30.2277 329.9488 14.34172459135428
STARLINK-30907          
1 58352U 23177B   26169.60325260 -.00000121  00000+0  51278-5 0  9993
2 58352  43.0027 140.4510 0001400 275.4467  84.6225 15.27578073143758
STARLINK-30896          
1 58353U 23177C   26169.57738499  .00000383  00000+0  23450-4 0  9991
2 58353  43.0040 359.0458 0001036 268.4226  91.6507 15.27577517145264
STARLINK-30832          
1 58354U 23177D   26168.22257013  .00000512  00000+0  28134-4 0  9999
2 58354  42.9975 149.0003 0001450 261.8323  98.2364 15.27578500143397
STARLINK-30903          
1 58355U 23177E   26169.60582098  .00000728  00000+0  35980-4 0  9993
2 58355  43.0018 140.4812 0001186 269.6538  90.4178 15.27579869143667
STARLINK-30905          
1 58356U 23177F   26169.60967295 -.00000110  00000+0  55301-5 0  9996
2 58356  43.0030 140.4760 0001180 265.9849  94.0867 15.27577628143602
STARLINK-30842          
1 58357U 23177G   26169.57776979  .00002877  00000+0  11330-3 0  9993
2 58357  43.0097 127.3734 0002313 139.5724 220.5300 15.27800852143817
STARLINK-30858          
1 58358U 23177H   26168.94553071  .00000751  00000+0  36811-4 0  9991
2 58358  43.0024 144.1258 0001273 272.1450  87.9256 15.27582042143576
STARLINK-30878          
1 58359U 23177J   26169.61689070  .00000371  00000+0  22984-4 0  9990
2 58359  43.0000 143.9593 0000613 318.7341  41.3464 15.27578532143623
STARLINK-30897          
1 58360U 23177K   26168.98096571  .00000340  00000+0  21876-4 0  9994
2 58360  43.0009 158.8449 0001270 253.2699 106.8013 15.27578496143398
STARLINK-30885          
1 58361U 23177L   26169.61353497 -.00001052  00000+0 -28705-4 0  9990
2 58361  43.0028 140.5379 0001488 269.8704  90.1977 15.27585299143675
STARLINK-30890          
1 58362U 23177M   26169.61733258  .00001886  00000+0  77841-4 0  9996
2 58362  43.0032 140.5662 0000931 292.8345  67.2408 15.27663342143619
