OBJECT_NAME,OBJECT_ID,EPOCH,MEAN_MOTION,ECCENTRICITY,INCLINATION,RA_OF_ASC_NODE,ARG_OF_PERICENTER,MEAN_ANOMALY,EPHEMERIS_TYPE,CLASSIFICATION_TYPE,NORAD_CAT_ID,ELEMENT_SET_NO,REV_AT_EPOCH,BSTAR,MEAN_MOTION_DOT,MEAN_MOTION_DDOT
ION SCV-013,2023-174AW,2026-06-18T15:01:33.852864,15.05103371,.00984346,97.6158,224.6873,190.4251,169.4937,0,U,58300,999,14175,.1476681E-3,.2271E-4,0
LEO EXPRESS 1,2023-174AX,2026-06-18T14:38:00.067200,15.35360054,.00741101,97.5190,255.1197,116.7744,244.1106,0,U,58301,999,14511,.32642497E-3,.12192E-3,0
ICEYE-X35,2023-174AY,2026-06-18T14:16:01.034688,15.52547503,.00095468,97.3794,254.2052,188.1961,171.9137,0,U,58302,999,14556,.64866699E-3,.39909E-3,0
FLOCK 4Q-29,2023-174BA,2026-06-18T05:55:27.089184,15.56199873,.00059857,97.3938,261.0260,139.1249,221.0456,0,U,58304,999,14592,.78901773E-3,.55511E-3,0
FLOCK 4Q-35,2023-174BF,2026-06-18T06:00:08.417952,15.57384854,.00060834,97.3879,261.3875,147.0222,213.1414,0,U,58309,999,14597,.51161813E-3,.37491E-3,0
FLOCK 4Q-7,2023-174BQ,2026-06-18T05:37:06.611520,15.55631350,.00066334,97.3915,260.7569,135.4496,224.7293,0,U,58318,999,14591,.39414025E-3,.27013E-3,0
FLOCK 4Q-2,2023-174BS,2026-06-18T13:17:03.792768,15.49652721,.00069537,97.3829,258.0251,130.3104,229.8755,0,U,58320,999,14581,.33156562E-3,.18294E-3,0
PROTOMETHEE,2023-174BT,2026-06-18T13:59:14.604288,15.31241073,.00101866,97.3790,247.9835,162.2640,197.8959,0,U,58321,999,14518,.94579492E-4,.278E-4,0
FLOCK 4Q-9,2023-174BU,2026-06-18T12:18:34.935840,15.49983864,.00077097,97.3863,258.0665,134.5741,225.6141,0,U,58322,999,14579,.41177521E-3,.23028E-3,0
OBSERVER-1A,2023-174BV,2026-06-18T14:12:52.985088,15.38667862,.00091352,97.3942,253.3773,144.6154,215.5699,0,U,58323,999,14542,.20682118E-3,.7826E-4,0
PICO-01A003,2023-174BY,2026-06-18T11:49:38.942112,15.46141735,.00065847,97.3795,254.8621,149.5936,210.5696,0,U,58326,999,14561,.33903028E-3,.16553E-3,0
FLOCK 4Q-4,2023-174BZ,2026-06-18T12:04:52.641984,15.48631509,.00070281,97.3827,257.2434,151.3956,208.7682,0,U,58327,999,14576,.33390477E-3,.17775E-3,0
FLOCK 4Q-13,2023-174CA,2026-06-18T05:13:36.468480,15.51722867,.00073474,97.4001,260.0630,137.3947,222.7877,0,U,58328,999,14583,.31213598E-3,.18531E-3,0
OUTPOST MISSION 2,2023-174CG,2026-06-18T12:24:02.536128,15.57794059,.00058592,97.3966,262.5234,118.9151,241.2693,0,U,58334,999,14603,.38921926E-3,.28903E-3,0
LEMUR-2-JK0903EM1407,2023-174CJ,2026-06-18T11:57:06.291936,15.51737446,.0005722,97.3921,260.0046,116.7088,243.4751,0,U,58336,999,14593,.35748095E-3,.21247E-3,0
LEMUR-2-MJR092620,2023-174CN,2026-06-18T12:27:18.881856,15.44915529,.00071166,97.3974,259.5722,113.7449,246.4547,0,U,58340,999,14585,.32763359E-3,.15336E-3,0
O3B MPOWER F5,2023-175A,2026-06-17T17:00:01.124640,5.00115966,.00051551,0.0491,11.4610,93.1696,255.4246,0,U,58346,999,4946,0,-.22E-6,0
O3B MPOWER F6,2023-175B,2026-06-18T09:48:13.157568,5.00115886,.00045057,0.0526,3.3969,79.7086,276.9435,0,U,58347,999,4841,0,-.23E-6,0
HAIYANG-3A,2023-176A,2026-06-17T22:26:01.802112,14.34172459,.00100874,98.5472,246.8971,30.2277,329.9488,0,U,58349,999,13542,.4655765E-4,.87E-6,0
STARLINK-30907,2023-177B,2026-06-18T14:28:41.024640,15.27578073,.00014006,43.0027,140.4510,275.4467,84.6225,0,U,58352,999,14375,.5127819E-5,-.121E-5,0
STARLINK-30896,2023-177C,2026-06-18T13:51:26.063136,15.27577517,.00010363,43.0040,359.0458,268.4226,91.6507,0,U,58353,999,14526,.23450021E-4,.383E-5,0
STARLINK-30832,2023-177D,2026-06-17T05:20:30.059232,15.27578500,.00014501,42.9975,149.0003,261.8323,98.2364,0,U,58354,999,14339,.28134271E-4,.512E-5,0
STARLINK-30903,2023-177E,2026-06-18T14:32:22.932672,15.27579869,.00011868,43.0018,140.4812,269.6538,90.4178,0,U,58355,999,14366,.35979972E-4,.728E-5,0
STARLINK-30905,2023-177F,2026-06-18T14:37:55.742880,15.27577628,.00011802,43.0030,140.4760,265.9849,94.0867,0,U,58356,999,14360,.5530132E-5,-.11E-5,0
STARLINK-30842,2023-177G,2026-06-18T13:51:59.309856,15.27800852,.00023134,43.0097,127.3734,139.5724,220.5300,0,U,58357,999,14381,.11330303E-3,.2877E-4,0
STARLINK-30858,2023-177H,2026-06-17T22:41:33.853344,15.27582042,.00012733,43.0024,144.1258,272.1450,87.9256,0,U,58358,999,14357,.36810884E-4,.751E-5,0
STARLINK-30878,2023-177J,2026-06-18T14:48:19.356480,15.27578532,.00006139,43.0000,143.9593,318.7341,41.3464,0,U,58359,999,14362,.22984396E-4,.371E-5,0
STARLINK-30897,2023-177K,2026-06-17T23:32:35.437344,15.27578496,.00012709,43.0009,158.8449,253.2699,106.8013,0,U,58360,999,14339,.21875773E-4,.34E-5,0
STARLINK-30885,2023-177L,2026-06-18T14:43:29.421408,15.27585299,.00014887,43.0028,140.5379,269.8704,90.1977,0,U,58361,999,14367,-.28704975E-4,-.1052E-4,0
STARLINK-30890,2023-177M,2026-06-18T14:48:57.534912,15.27663342,.00009312,43.0032,140.5662,292.8345,67.2408,0,U,58362,999,14361,.7784071E-4,.1886E-4,0
